QIANFAN-57              
1 62787U 25016C   25236.61686442  .00000111  00000+0  15397-3 0  9999
2 62787  88.9818 114.5647 0002664  83.2489 276.8965 13.50961017 32331
QIANFAN-58              
1 62788U 25016D   25236.58808436  .00000109  00000+0  15093-3 0  9995
2 62788  88.9787 114.4335 0012657 308.5049  51.4966 13.50960186 32376
QIANFAN-59              
1 62789U 25016E   25236.60040742  .00000101  00000+0  13836-3 0  9992
2 62789  88.9811 114.4767 0013650 311.4936  48.5042 13.50964423 32376
QIANFAN-60              
1 62790U 25016F   25236.59201969  .00000109  00000+0  15087-3 0  9990
2 62790  88.9792 114.4779 0014055 308.9302  51.0596 13.50961666 32354
QIANFAN-61              
1 62791U 25016G   25236.60451189  .00000102  00000+0  14028-3 0  9991
2 62791  88.9859 114.5596 0013463 307.5840  52.4088 13.50967281 32373
QIANFAN-62              
1 62792U 25016H   25236.60852110  .00000099  00000+0  13526-3 0  9998
2 62792  88.9805 114.4873 0014862 307.4422  52.5377 13.50961263 32366
QIANFAN-63              
1 62793U 25016J   25236.62092532  .00000106  00000+0  14504-3 0  9991
2 62793  88.9812 114.4272 0014798 312.3696  47.6202 13.50958339 32401
QIANFAN-64              
1 62794U 25016K   25236.61262299  .00000118  00000+0  16388-3 0  9995
2 62794  88.9799 114.4229 0012462 306.4833  53.5170 13.50960893 32397
